KINEIS-1B               
1 60079U 24114A   26195.96217644  .00000365  00000+0  54309-4 0  9994
2 60079  97.9828 220.0150 0002988  39.0269 321.1158 14.80666908111511
KINEIS-1C               
1 60081U 24114C   26195.99581020  .00000355  00000+0  53033-4 0  9994
2 60081  97.9841 219.9038 0002568  95.1207 265.0298 14.80668684111491
KINEIS-1D               
1 60082U 24114D   26195.96767611  .00000294  00000+0  49671-4 0  9999
2 60082  97.9878 215.8002 0002961  98.4263 261.7282 14.76362427111221
KINEIS-1E               
1 60083U 24114E   26196.01363584  .00000425  00000+0  62060-4 0  9991
2 60083  97.8944 218.9928 0004128 110.0065 250.1592 14.80694086111505
KINEIS-1A               
1 60084U 24114F   26195.97949767  .00000377  00000+0  55813-4 0  9993
2 60084  97.8917 219.0530 0005401  62.9652 297.2111 14.80682157111504
KINEIS-3C               
1 61220U 24172A   26195.80089562  .00000862  00000+0  14432-3 0  9990
2 61220  98.0439 285.4072 0002649  83.0537 277.0971 14.72288841 97139
KINEIS-3D               
1 61221U 24172B   26195.79416731  .00000521  00000+0  90308-4 0  9990
2 61221  98.0426 285.4122 0002467  87.5138 272.6351 14.72285504 97413
KINEIS-3E               
1 61222U 24172C   26195.77707943  .00000858  00000+0  14370-3 0  9994
2 61222  98.0428 285.3753 0001788  89.0723 271.0689 14.72275598 97416
KINEIS-3A               
1 61223U 24172D   26195.76053901  .00000878  00000+0  14672-3 0  9999
2 61223  98.0425 285.4570 0002209  43.4055 316.7326 14.72308943 96834
KINEIS-3B               
1 61224U 24172E   26195.74316129  .00000867  00000+0  14500-3 0  9990
2 61224  98.0419 285.4622 0001649  29.6579 330.4721 14.72295055 97405
KINEIS-5C               
1 62081U 24219A   26195.92425616  .00000295  00000+0  54313-4 0  9998
2 62081  97.9066 354.0099 0004135 173.8416 186.2843 14.72314476 87836
KINEIS-5D               
1 62082U 24219B   26195.95080211  .00000441  00000+0  77168-4 0  9996
2 62082  97.9179 354.1032 0005263 168.2166 191.9166 14.72493314 87844
KINEIS-5E               
1 62083U 24219C   26195.96859648  .00000272  00000+0  50612-4 0  9993
2 62083  97.9023 354.1474 0006758 165.2164 194.9242 14.72299074 87854
KINEIS-5A               
1 62084U 24219D   26195.87882823  .00001200  00000+0  19768-3 0  9993
2 62084  97.8965 354.3400 0003702 200.8934 159.2123 14.72256101 87842
KINEIS-5B               
1 62085U 24219E   26195.93324689  .00000516  00000+0  77995-4 0  9998
2 62085  98.0090 359.6105 0002474 145.8846 214.2524 14.78385171 88103
KINEIS-2C               
1 62929U 25028B   26195.68903734  .00000764  00000+0  12562-3 0  9993
2 62929  98.1231 250.1119 0004207 160.5437 199.5932 14.73428300 76667
