{"fetched_at":"2026-07-15T06:36:12.142Z","source":"https://celestrak.org/NORAD/elements/gp.php?NAME=KINEIS&FORMAT=JSON","constellation":"kineis","records":[{"OBJECT_NAME":"KINEIS-1B","OBJECT_ID":"2024-114A","EPOCH":"2026-07-14T23:05:32.044416","CLASSIFICATION_TYPE":"U","MEAN_MOTION":14.80666908,"ECCENTRICITY":0.00029884,"INCLINATION":97.9828,"RA_OF_ASC_NODE":220.015,"ARG_OF_PERICENTER":39.0269,"MEAN_ANOMALY":321.1158,"EPHEMERIS_TYPE":0,"NORAD_CAT_ID":60079,"ELEMENT_SET_NO":999,"REV_AT_EPOCH":11151,"BSTAR":0.000054308539,"MEAN_MOTION_DOT":0.00000365,"MEAN_MOTION_DDOT":0},{"OBJECT_NAME":"KINEIS-1C","OBJECT_ID":"2024-114C","EPOCH":"2026-07-14T23:53:58.001280","CLASSIFICATION_TYPE":"U","MEAN_MOTION":14.80668684,"ECCENTRICITY":0.00025687,"INCLINATION":97.9841,"RA_OF_ASC_NODE":219.9038,"ARG_OF_PERICENTER":95.1207,"MEAN_ANOMALY":265.0298,"EPHEMERIS_TYPE":0,"NORAD_CAT_ID":60081,"ELEMENT_SET_NO":999,"REV_AT_EPOCH":11149,"BSTAR":0.000053033413,"MEAN_MOTION_DOT":0.00000355,"MEAN_MOTION_DDOT":0},{"OBJECT_NAME":"KINEIS-1D","OBJECT_ID":"2024-114D","EPOCH":"2026-07-14T23:13:27.215904","CLASSIFICATION_TYPE":"U","MEAN_MOTION":14.76362427,"ECCENTRICITY":0.00029615,"INCLINATION":97.9878,"RA_OF_ASC_NODE":215.8002,"ARG_OF_PERICENTER":98.4263,"MEAN_ANOMALY":261.7282,"EPHEMERIS_TYPE":0,"NORAD_CAT_ID":60082,"ELEMENT_SET_NO":999,"REV_AT_EPOCH":11122,"BSTAR":0.000049670991,"MEAN_MOTION_DOT":0.00000294,"MEAN_MOTION_DDOT":0},{"OBJECT_NAME":"KINEIS-1E","OBJECT_ID":"2024-114E","EPOCH":"2026-07-15T00:19:38.136576","CLASSIFICATION_TYPE":"U","MEAN_MOTION":14.80694086,"ECCENTRICITY":0.0004128,"INCLINATION":97.8944,"RA_OF_ASC_NODE":218.9928,"ARG_OF_PERICENTER":110.0065,"MEAN_ANOMALY":250.1592,"EPHEMERIS_TYPE":0,"NORAD_CAT_ID":60083,"ELEMENT_SET_NO":999,"REV_AT_EPOCH":11150,"BSTAR":0.000062060261,"MEAN_MOTION_DOT":0.00000425,"MEAN_MOTION_DDOT":0},{"OBJECT_NAME":"KINEIS-1A","OBJECT_ID":"2024-114F","EPOCH":"2026-07-14T23:30:28.598688","CLASSIFICATION_TYPE":"U","MEAN_MOTION":14.80682157,"ECCENTRICITY":0.00054014,"INCLINATION":97.8917,"RA_OF_ASC_NODE":219.053,"ARG_OF_PERICENTER":62.9652,"MEAN_ANOMALY":297.2111,"EPHEMERIS_TYPE":0,"NORAD_CAT_ID":60084,"ELEMENT_SET_NO":999,"REV_AT_EPOCH":11150,"BSTAR":0.000055812865,"MEAN_MOTION_DOT":0.00000377,"MEAN_MOTION_DDOT":0},{"OBJECT_NAME":"KINEIS-3C","OBJECT_ID":"2024-172A","EPOCH":"2026-07-14T19:13:17.381568","CLASSIFICATION_TYPE":"U","MEAN_MOTION":14.72288841,"ECCENTRICITY":0.00026495,"INCLINATION":98.0439,"RA_OF_ASC_NODE":285.4072,"ARG_OF_PERICENTER":83.0537,"MEAN_ANOMALY":277.0971,"EPHEMERIS_TYPE":0,"NORAD_CAT_ID":61220,"ELEMENT_SET_NO":999,"REV_AT_EPOCH":9713,"BSTAR":0.0001443245,"MEAN_MOTION_DOT":0.00000862,"MEAN_MOTION_DDOT":0},{"OBJECT_NAME":"KINEIS-3D","OBJECT_ID":"2024-172B","EPOCH":"2026-07-14T19:03:36.055584","CLASSIFICATION_TYPE":"U","MEAN_MOTION":14.72285504,"ECCENTRICITY":0.00024673,"INCLINATION":98.0426,"RA_OF_ASC_NODE":285.4122,"ARG_OF_PERICENTER":87.5138,"MEAN_ANOMALY":272.6351,"EPHEMERIS_TYPE":0,"NORAD_CAT_ID":61221,"ELEMENT_SET_NO":999,"REV_AT_EPOCH":9741,"BSTAR":0.000090308177,"MEAN_MOTION_DOT":0.00000521,"MEAN_MOTION_DDOT":0},{"OBJECT_NAME":"KINEIS-3E","OBJECT_ID":"2024-172C","EPOCH":"2026-07-14T18:38:59.662752","CLASSIFICATION_TYPE":"U","MEAN_MOTION":14.72275598,"ECCENTRICITY":0.00017881,"INCLINATION":98.0428,"RA_OF_ASC_NODE":285.3753,"ARG_OF_PERICENTER":89.0723,"MEAN_ANOMALY":271.0689,"EPHEMERIS_TYPE":0,"NORAD_CAT_ID":61222,"ELEMENT_SET_NO":999,"REV_AT_EPOCH":9741,"BSTAR":0.00014370319,"MEAN_MOTION_DOT":0.00000858,"MEAN_MOTION_DDOT":0},{"OBJECT_NAME":"KINEIS-3A","OBJECT_ID":"2024-172D","EPOCH":"2026-07-14T18:15:10.570464","CLASSIFICATION_TYPE":"U","MEAN_MOTION":14.72308943,"ECCENTRICITY":0.00022094,"INCLINATION":98.0425,"RA_OF_ASC_NODE":285.457,"ARG_OF_PERICENTER":43.4055,"MEAN_ANOMALY":316.7326,"EPHEMERIS_TYPE":0,"NORAD_CAT_ID":61223,"ELEMENT_SET_NO":999,"REV_AT_EPOCH":9683,"BSTAR":0.00014672387,"MEAN_MOTION_DOT":0.00000878,"MEAN_MOTION_DDOT":0},{"OBJECT_NAME":"KINEIS-3B","OBJECT_ID":"2024-172E","EPOCH":"2026-07-14T17:50:09.135456","CLASSIFICATION_TYPE":"U","MEAN_MOTION":14.72295055,"ECCENTRICITY":0.00016491,"INCLINATION":98.0419,"RA_OF_ASC_NODE":285.4622,"ARG_OF_PERICENTER":29.6579,"MEAN_ANOMALY":330.4721,"EPHEMERIS_TYPE":0,"NORAD_CAT_ID":61224,"ELEMENT_SET_NO":999,"REV_AT_EPOCH":9740,"BSTAR":0.00014500169,"MEAN_MOTION_DOT":0.00000867,"MEAN_MOTION_DDOT":0},{"OBJECT_NAME":"KINEIS-5C","OBJECT_ID":"2024-219A","EPOCH":"2026-07-14T22:10:55.732224","CLASSIFICATION_TYPE":"U","MEAN_MOTION":14.72314476,"ECCENTRICITY":0.00041351,"INCLINATION":97.9066,"RA_OF_ASC_NODE":354.0099,"ARG_OF_PERICENTER":173.8416,"MEAN_ANOMALY":186.2843,"EPHEMERIS_TYPE":0,"NORAD_CAT_ID":62081,"ELEMENT_SET_NO":999,"REV_AT_EPOCH":8783,"BSTAR":0.000054312734,"MEAN_MOTION_DOT":0.00000295,"MEAN_MOTION_DDOT":0},{"OBJECT_NAME":"KINEIS-5D","OBJECT_ID":"2024-219B","EPOCH":"2026-07-14T22:49:09.302304","CLASSIFICATION_TYPE":"U","MEAN_MOTION":14.72493314,"ECCENTRICITY":0.00052633,"INCLINATION":97.9179,"RA_OF_ASC_NODE":354.1032,"ARG_OF_PERICENTER":168.2166,"MEAN_ANOMALY":191.9166,"EPHEMERIS_TYPE":0,"NORAD_CAT_ID":62082,"ELEMENT_SET_NO":999,"REV_AT_EPOCH":8784,"BSTAR":0.000077167674,"MEAN_MOTION_DOT":0.00000441,"MEAN_MOTION_DDOT":0},{"OBJECT_NAME":"KINEIS-5E","OBJECT_ID":"2024-219C","EPOCH":"2026-07-14T23:14:46.735872","CLASSIFICATION_TYPE":"U","MEAN_MOTION":14.72299074,"ECCENTRICITY":0.0006758,"INCLINATION":97.9023,"RA_OF_ASC_NODE":354.1474,"ARG_OF_PERICENTER":165.2164,"MEAN_ANOMALY":194.9242,"EPHEMERIS_TYPE":0,"NORAD_CAT_ID":62083,"ELEMENT_SET_NO":999,"REV_AT_EPOCH":8785,"BSTAR":0.000050611673,"MEAN_MOTION_DOT":0.00000272,"MEAN_MOTION_DDOT":0},{"OBJECT_NAME":"KINEIS-5A","OBJECT_ID":"2024-219D","EPOCH":"2026-07-14T21:05:30.759072","CLASSIFICATION_TYPE":"U","MEAN_MOTION":14.72256101,"ECCENTRICITY":0.00037029,"INCLINATION":97.8965,"RA_OF_ASC_NODE":354.34,"ARG_OF_PERICENTER":200.8934,"MEAN_ANOMALY":159.2123,"EPHEMERIS_TYPE":0,"NORAD_CAT_ID":62084,"ELEMENT_SET_NO":999,"REV_AT_EPOCH":8784,"BSTAR":0.0001976797,"MEAN_MOTION_DOT":0.000012,"MEAN_MOTION_DDOT":0},{"OBJECT_NAME":"KINEIS-5B","OBJECT_ID":"2024-219E","EPOCH":"2026-07-14T22:23:52.531296","CLASSIFICATION_TYPE":"U","MEAN_MOTION":14.78385171,"ECCENTRICITY":0.00024745,"INCLINATION":98.009,"RA_OF_ASC_NODE":359.6105,"ARG_OF_PERICENTER":145.8846,"MEAN_ANOMALY":214.2524,"EPHEMERIS_TYPE":0,"NORAD_CAT_ID":62085,"ELEMENT_SET_NO":999,"REV_AT_EPOCH":8810,"BSTAR":0.000077995116,"MEAN_MOTION_DOT":0.00000516,"MEAN_MOTION_DDOT":0},{"OBJECT_NAME":"KINEIS-2C","OBJECT_ID":"2025-028B","EPOCH":"2026-07-14T16:32:12.826176","CLASSIFICATION_TYPE":"U","MEAN_MOTION":14.734283,"ECCENTRICITY":0.0004207,"INCLINATION":98.1231,"RA_OF_ASC_NODE":250.1119,"ARG_OF_PERICENTER":160.5437,"MEAN_ANOMALY":199.5932,"EPHEMERIS_TYPE":0,"NORAD_CAT_ID":62929,"ELEMENT_SET_NO":999,"REV_AT_EPOCH":7666,"BSTAR":0.00012561601,"MEAN_MOTION_DOT":0.00000764,"MEAN_MOTION_DDOT":0}]}
